RESURS-DK 1             
1 29228U 06021A   26178.81005575  .00002289  00000+0  13444-3 0  9996
2 29228  69.9338 312.0550 0006732 286.8936  73.1492 15.13259446104189
SAR-LUPE 2              
1 31797U 07030A   26178.92808931  .00014040  00000+0  23808-3 0  9993
2 31797  98.1057 284.7042 0002643 178.6304 181.4954 15.51649048 58604
SARAL                   
1 39086U 13009A   26178.93449112  .00000081  00000+0  45537-4 0  9992
2 39086  98.5557   5.3655 0000755 223.9447 136.1677 14.32858429697143
SAOCOM 1A               
1 43641U 18076A   26178.93774368  .00000713  00000+0  96054-4 0  9999
2 43641  97.8883   5.5301 0001559  81.2406 278.8984 14.82156502417695
SAUDISAT 5A             
1 43831U 18102A   26178.96953957  .00005721  00000+0  21076-3 0  9991
2 43831  97.3068 240.3428 0011298  96.5064 263.7462 15.28156382417326
RISAT-2B                
1 44233U 19028A   26178.79057955  .00003281  00000+0  25344-3 0  9991
2 44233  36.9978 291.2017 0003864 131.8032 228.3042 15.01718883389420
RISAT-2BR1              
1 44857U 19089F   26178.92549750  .00003027  00000+0  23396-3 0  9997
2 44857  36.9612  47.8926 0013192 262.1658  97.7586 15.01713298358813
SAOCOM 1B               
1 46265U 20059A   26178.96892140  .00000683  00000+0  92425-4 0  9994
2 46265  97.8887   4.6566 0001622  81.1503 278.9894 14.82148391315083
RISAT-2BR2              
1 46905U 20081A   26178.98715631  .00002369  00000+0  18456-3 0  9995
2 46905  36.8968 160.1386 0012274 250.8465 109.0947 15.01666592309099
RESURS-P 4              
1 59371U 24061A   26178.97395451  .00003054  00000+0  10072-3 0  9999
2 59371  97.2753 126.6850 0002829 113.9969 246.1569 15.32190156125416
